TRANSPORTER-15 AM       
1 66701U 25276AM  25352.14785251  .00007488  00000+0  37893-3 0  9991
2 66701  97.4440  63.8179 0003074 280.5231  79.5656 15.17299423  2945
TRANSPORTER-15 AN       
1 66702U 25276AN  25353.13692228  .00006813  00000+0  34481-3 0  9994
2 66702  97.4414  64.7831 0002873 282.7617  77.3295 15.17330546  3094
PELICAN-6               
1 66703U 25276AP  25353.13554477  .00002643  00000+0  13593-3 0  9996
2 66703  97.4419  64.7865 0000900 275.6479  84.4652 15.17307611  3096
FLOCK 4H-1              
1 66704U 25276AQ  25353.19303452  .00004757  00000+0  23701-3 0  9998
2 66704  97.4397  64.8545 0001548 181.5889 178.5340 15.18034539  3105
FLOCK 4H-2              
1 66705U 25276AR  25353.19269310  .00004952  00000+0  24624-3 0  9995
2 66705  97.4391  64.8553 0000938 166.9207 193.2052 15.18084652  3107
FLOCK 4H-3              
1 66706U 25276AS  25352.14602047  .00004708  00000+0  23866-3 0  9994
2 66706  97.4462  63.8245 0002845 277.7473  82.3438 15.17430033  2943
FLOCK 4H-4              
1 66707U 25276AT  25353.13841575  .00004643  00000+0  23719-3 0  9991
2 66707  97.4440  64.7890 0003575 271.9777  88.1047 15.17166641  3098
FLOCK 4H-5              
1 66708U 25276AU  25353.19158203  .00004167  00000+0  20755-3 0  9995
2 66708  97.4396  64.8597 0000968 124.8752 235.2573 15.18120951  3102
FLOCK 4H-6              
1 66709U 25276AV  25353.19462053  .00003908  00000+0  19623-3 0  9991
2 66709  97.4444  64.8717 0002402 223.8399 136.2644 15.17869350  3104
FLOCK 4H-7              
1 66710U 25276AW  25353.20096965  .00004013  00000+0  20384-3 0  9994
2 66710  97.4402  64.8448 0001193 319.1798  40.9346 15.17446755  3109
FLOCK 4H-8              
1 66711U 25276AX  25352.14609422  .00005379  00000+0  27225-3 0  9992
2 66711  97.4446  63.8257 0002443 293.4669  66.6307 15.17427372  2942
FLOCK 4H-9              
1 66712U 25276AY  25353.12889832  .00004668  00000+0  23375-3 0  9999
2 66712  97.4436  64.8049 0002439 233.9039 126.1970 15.17870799  3097
