CCSDS_OMM_VERS = 2.0
CREATION_DATE  = 
ORIGINATOR     = 

OBJECT_NAME    = TRANSPORTER-15 AM
OBJECT_ID      = 2025-276AM
CENTER_NAME    = EARTH
REF_FRAME      = TEME
TIME_SYSTEM    = UTC
MEAN_ELEMENT_THEORY = SGP/SGP4

EPOCH          = 2025-12-18T03:32:54.456864
MEAN_MOTION    = 15.17299423
ECCENTRICITY   = .00030748
INCLINATION    = 97.4440
RA_OF_ASC_NODE = 63.8179
ARG_OF_PERICENTER = 280.5231
MEAN_ANOMALY   = 79.5656

EPHEMERIS_TYPE = 0
CLASSIFICATION_TYPE = U
NORAD_CAT_ID   = 66701
ELEMENT_SET_NO = 999
REV_AT_EPOCH   = 294
BSTAR          = .37892619E-3
MEAN_MOTION_DOT = .7488E-4
MEAN_MOTION_DDOT = 0

CCSDS_OMM_VERS = 2.0
CREATION_DATE  = 
ORIGINATOR     = 

OBJECT_NAME    = TRANSPORTER-15 AN
OBJECT_ID      = 2025-276AN
CENTER_NAME    = EARTH
REF_FRAME      = TEME
TIME_SYSTEM    = UTC
MEAN_ELEMENT_THEORY = SGP/SGP4

EPOCH          = 2025-12-19T03:17:10.084992
MEAN_MOTION    = 15.17330546
ECCENTRICITY   = .00028731
INCLINATION    = 97.4414
RA_OF_ASC_NODE = 64.7831
ARG_OF_PERICENTER = 282.7617
MEAN_ANOMALY   = 77.3295

EPHEMERIS_TYPE = 0
CLASSIFICATION_TYPE = U
NORAD_CAT_ID   = 66702
ELEMENT_SET_NO = 999
REV_AT_EPOCH   = 309
BSTAR          = .34481294E-3
MEAN_MOTION_DOT = .6813E-4
MEAN_MOTION_DDOT = 0

CCSDS_OMM_VERS = 2.0
CREATION_DATE  = 
ORIGINATOR     = 

OBJECT_NAME    = TRANSPORTER-15 AP
OBJECT_ID      = 2025-276AP
CENTER_NAME    = EARTH
REF_FRAME      = TEME
TIME_SYSTEM    = UTC
MEAN_ELEMENT_THEORY = SGP/SGP4

EPOCH          = 2025-12-19T03:15:11.068128
MEAN_MOTION    = 15.17307611
ECCENTRICITY   = .00009001
INCLINATION    = 97.4419
RA_OF_ASC_NODE = 64.7865
ARG_OF_PERICENTER = 275.6479
MEAN_ANOMALY   = 84.4652

EPHEMERIS_TYPE = 0
CLASSIFICATION_TYPE = U
NORAD_CAT_ID   = 66703
ELEMENT_SET_NO = 999
REV_AT_EPOCH   = 309
BSTAR          = .13592783E-3
MEAN_MOTION_DOT = .2643E-4
MEAN_MOTION_DDOT = 0

CCSDS_OMM_VERS = 2.0
CREATION_DATE  = 
ORIGINATOR     = 

OBJECT_NAME    = TRANSPORTER-15 AQ
OBJECT_ID      = 2025-276AQ
CENTER_NAME    = EARTH
REF_FRAME      = TEME
TIME_SYSTEM    = UTC
MEAN_ELEMENT_THEORY = SGP/SGP4

EPOCH          = 2025-12-19T04:37:58.182528
MEAN_MOTION    = 15.18034539
ECCENTRICITY   = .00015485
INCLINATION    = 97.4397
RA_OF_ASC_NODE = 64.8545
ARG_OF_PERICENTER = 181.5889
MEAN_ANOMALY   = 178.5340

EPHEMERIS_TYPE = 0
CLASSIFICATION_TYPE = U
NORAD_CAT_ID   = 66704
ELEMENT_SET_NO = 999
REV_AT_EPOCH   = 310
BSTAR          = .23701449E-3
MEAN_MOTION_DOT = .4757E-4
MEAN_MOTION_DDOT = 0

CCSDS_OMM_VERS = 2.0
CREATION_DATE  = 
ORIGINATOR     = 

OBJECT_NAME    = TRANSPORTER-15 AR
OBJECT_ID      = 2025-276AR
CENTER_NAME    = EARTH
REF_FRAME      = TEME
TIME_SYSTEM    = UTC
MEAN_ELEMENT_THEORY = SGP/SGP4

EPOCH          = 2025-12-19T04:37:28.683840
MEAN_MOTION    = 15.18084652
ECCENTRICITY   = .00009382
INCLINATION    = 97.4391
RA_OF_ASC_NODE = 64.8553
ARG_OF_PERICENTER = 166.9207
MEAN_ANOMALY   = 193.2052

EPHEMERIS_TYPE = 0
CLASSIFICATION_TYPE = U
NORAD_CAT_ID   = 66705
ELEMENT_SET_NO = 999
REV_AT_EPOCH   = 310
BSTAR          = .24623928E-3
MEAN_MOTION_DOT = .4952E-4
MEAN_MOTION_DDOT = 0

CCSDS_OMM_VERS = 2.0
CREATION_DATE  = 
ORIGINATOR     = 

OBJECT_NAME    = TRANSPORTER-15 AS
OBJECT_ID      = 2025-276AS
CENTER_NAME    = EARTH
REF_FRAME      = TEME
TIME_SYSTEM    = UTC
MEAN_ELEMENT_THEORY = SGP/SGP4

EPOCH          = 2025-12-18T03:30:16.168608
MEAN_MOTION    = 15.17430033
ECCENTRICITY   = .00028451
INCLINATION    = 97.4462
RA_OF_ASC_NODE = 63.8245
ARG_OF_PERICENTER = 277.7473
MEAN_ANOMALY   = 82.3438

EPHEMERIS_TYPE = 0
CLASSIFICATION_TYPE = U
NORAD_CAT_ID   = 66706
ELEMENT_SET_NO = 999
REV_AT_EPOCH   = 294
BSTAR          = .23866482E-3
MEAN_MOTION_DOT = .4708E-4
MEAN_MOTION_DDOT = 0

CCSDS_OMM_VERS = 2.0
CREATION_DATE  = 
ORIGINATOR     = 

OBJECT_NAME    = TRANSPORTER-15 AT
OBJECT_ID      = 2025-276AT
CENTER_NAME    = EARTH
REF_FRAME      = TEME
TIME_SYSTEM    = UTC
MEAN_ELEMENT_THEORY = SGP/SGP4

EPOCH          = 2025-12-19T03:19:19.120800
MEAN_MOTION    = 15.17166641
ECCENTRICITY   = .00035753
INCLINATION    = 97.4440
RA_OF_ASC_NODE = 64.7890
ARG_OF_PERICENTER = 271.9777
MEAN_ANOMALY   = 88.1047

EPHEMERIS_TYPE = 0
CLASSIFICATION_TYPE = U
NORAD_CAT_ID   = 66707
ELEMENT_SET_NO = 999
REV_AT_EPOCH   = 309
BSTAR          = .23719058E-3
MEAN_MOTION_DOT = .4643E-4
MEAN_MOTION_DDOT = 0

CCSDS_OMM_VERS = 2.0
CREATION_DATE  = 
ORIGINATOR     = 

OBJECT_NAME    = TRANSPORTER-15 AU
OBJECT_ID      = 2025-276AU
CENTER_NAME    = EARTH
REF_FRAME      = TEME
TIME_SYSTEM    = UTC
MEAN_ELEMENT_THEORY = SGP/SGP4

EPOCH          = 2025-12-19T04:35:52.687392
MEAN_MOTION    = 15.18120951
ECCENTRICITY   = .00009681
INCLINATION    = 97.4396
RA_OF_ASC_NODE = 64.8597
ARG_OF_PERICENTER = 124.8752
MEAN_ANOMALY   = 235.2573

EPHEMERIS_TYPE = 0
CLASSIFICATION_TYPE = U
NORAD_CAT_ID   = 66708
ELEMENT_SET_NO = 999
REV_AT_EPOCH   = 310
BSTAR          = .20754672E-3
MEAN_MOTION_DOT = .4167E-4
MEAN_MOTION_DDOT = 0

CCSDS_OMM_VERS = 2.0
CREATION_DATE  = 
ORIGINATOR     = 

OBJECT_NAME    = TRANSPORTER-15 AV
OBJECT_ID      = 2025-276AV
CENTER_NAME    = EARTH
REF_FRAME      = TEME
TIME_SYSTEM    = UTC
MEAN_ELEMENT_THEORY = SGP/SGP4

EPOCH          = 2025-12-19T04:40:15.213792
MEAN_MOTION    = 15.17869350
ECCENTRICITY   = .00024024
INCLINATION    = 97.4444
RA_OF_ASC_NODE = 64.8717
ARG_OF_PERICENTER = 223.8399
MEAN_ANOMALY   = 136.2644

EPHEMERIS_TYPE = 0
CLASSIFICATION_TYPE = U
NORAD_CAT_ID   = 66709
ELEMENT_SET_NO = 999
REV_AT_EPOCH   = 310
BSTAR          = .19622692E-3
MEAN_MOTION_DOT = .3908E-4
MEAN_MOTION_DDOT = 0

CCSDS_OMM_VERS = 2.0
CREATION_DATE  = 
ORIGINATOR     = 

OBJECT_NAME    = TRANSPORTER-15 AW
OBJECT_ID      = 2025-276AW
CENTER_NAME    = EARTH
REF_FRAME      = TEME
TIME_SYSTEM    = UTC
MEAN_ELEMENT_THEORY = SGP/SGP4

EPOCH          = 2025-12-19T04:49:23.777760
MEAN_MOTION    = 15.17446755
ECCENTRICITY   = .00011939
INCLINATION    = 97.4402
RA_OF_ASC_NODE = 64.8448
ARG_OF_PERICENTER = 319.1798
MEAN_ANOMALY   = 40.9346

EPHEMERIS_TYPE = 0
CLASSIFICATION_TYPE = U
NORAD_CAT_ID   = 66710
ELEMENT_SET_NO = 999
REV_AT_EPOCH   = 310
BSTAR          = .20383947E-3
MEAN_MOTION_DOT = .4013E-4
MEAN_MOTION_DDOT = 0

CCSDS_OMM_VERS = 2.0
CREATION_DATE  = 
ORIGINATOR     = 

OBJECT_NAME    = TRANSPORTER-15 AX
OBJECT_ID      = 2025-276AX
CENTER_NAME    = EARTH
REF_FRAME      = TEME
TIME_SYSTEM    = UTC
MEAN_ELEMENT_THEORY = SGP/SGP4

EPOCH          = 2025-12-18T03:30:22.540608
MEAN_MOTION    = 15.17427372
ECCENTRICITY   = .00024434
INCLINATION    = 97.4446
RA_OF_ASC_NODE = 63.8257
ARG_OF_PERICENTER = 293.4669
MEAN_ANOMALY   = 66.6307

EPHEMERIS_TYPE = 0
CLASSIFICATION_TYPE = U
NORAD_CAT_ID   = 66711
ELEMENT_SET_NO = 999
REV_AT_EPOCH   = 294
BSTAR          = .27224845E-3
MEAN_MOTION_DOT = .5379E-4
MEAN_MOTION_DDOT = 0

CCSDS_OMM_VERS = 2.0
CREATION_DATE  = 
ORIGINATOR     = 

OBJECT_NAME    = TRANSPORTER-15 AY
OBJECT_ID      = 2025-276AY
CENTER_NAME    = EARTH
REF_FRAME      = TEME
TIME_SYSTEM    = UTC
MEAN_ELEMENT_THEORY = SGP/SGP4

EPOCH          = 2025-12-19T03:05:36.814848
MEAN_MOTION    = 15.17870799
ECCENTRICITY   = .00024396
INCLINATION    = 97.4436
RA_OF_ASC_NODE = 64.8049
ARG_OF_PERICENTER = 233.9039
MEAN_ANOMALY   = 126.1970

EPHEMERIS_TYPE = 0
CLASSIFICATION_TYPE = U
NORAD_CAT_ID   = 66712
ELEMENT_SET_NO = 999
REV_AT_EPOCH   = 309
BSTAR          = .23375248E-3
MEAN_MOTION_DOT = .4668E-4
MEAN_MOTION_DDOT = 0

